[
    {
        "OBJECT_NAME": "COSMOS 1975",
        "OBJECT_ID": "1988-093A",
        "EPOCH": "2026-04-18T08:03:20.031264",
        "MEAN_MOTION": 15.28569537,
        "ECCENTRICITY": 0.00125701,
        "INCLINATION": 82.5179,
        "RA_OF_ASC_NODE": 77.8596,
        "ARG_OF_PERICENTER": 39.6528,
        "MEAN_ANOMALY": 320.5629,
        "EPHEMERIS_TYPE": 0,
        "CLASSIFICATION_TYPE": "U",
        "NORAD_CAT_ID": 19573,
        "ELEMENT_SET_NO": 999,
        "REV_AT_EPOCH": 2546,
        "BSTAR": 0.00013493626,
        "MEAN_MOTION_DOT": 3.791e-05,
        "MEAN_MOTION_DDOT": 0
    },
    {
        "OBJECT_NAME": "SL-14 R/B",
        "OBJECT_ID": "1988-093B",
        "EPOCH": "2026-04-18T05:10:54.115968",
        "MEAN_MOTION": 14.85698791,
        "ECCENTRICITY": 0.00190796,
        "INCLINATION": 82.5341,
        "RA_OF_ASC_NODE": 4.9492,
        "ARG_OF_PERICENTER": 267.3595,
        "MEAN_ANOMALY": 253.5358,
        "EPHEMERIS_TYPE": 0,
        "CLASSIFICATION_TYPE": "U",
        "NORAD_CAT_ID": 19574,
        "ELEMENT_SET_NO": 999,
        "REV_AT_EPOCH": 688,
        "BSTAR": 2.7305431e-05,
        "MEAN_MOTION_DOT": 2.62e-06,
        "MEAN_MOTION_DDOT": 0
    },
    {
        "OBJECT_NAME": "SL-16 R/B",
        "OBJECT_ID": "1988-102B",
        "EPOCH": "2026-04-18T14:26:21.793632",
        "MEAN_MOTION": 14.16159249,
        "ECCENTRICITY": 0.001616,
        "INCLINATION": 70.9994,
        "RA_OF_ASC_NODE": 67.514,
        "ARG_OF_PERICENTER": 304.5453,
        "MEAN_ANOMALY": 55.4144,
        "EPHEMERIS_TYPE": 0,
        "CLASSIFICATION_TYPE": "U",
        "NORAD_CAT_ID": 19650,
        "ELEMENT_SET_NO": 999,
        "REV_AT_EPOCH": 93254,
        "BSTAR": -9.491e-05,
        "MEAN_MOTION_DOT": -2.36e-06,
        "MEAN_MOTION_DDOT": 0
    },
    {
        "OBJECT_NAME": "INTERCOSMOS 24",
        "OBJECT_ID": "1989-080A",
        "EPOCH": "2026-04-18T20:06:32.210784",
        "MEAN_MOTION": 12.59598459,
        "ECCENTRICITY": 0.1187362,
        "INCLINATION": 82.603,
        "RA_OF_ASC_NODE": 78.2545,
        "ARG_OF_PERICENTER": 199.5756,
        "MEAN_ANOMALY": 155.5833,
        "EPHEMERIS_TYPE": 0,
        "CLASSIFICATION_TYPE": "U",
        "NORAD_CAT_ID": 20261,
        "ELEMENT_SET_NO": 999,
        "REV_AT_EPOCH": 67185,
        "BSTAR": 5.7542e-05,
        "MEAN_MOTION_DOT": 2.09e-06,
        "MEAN_MOTION_DDOT": 0
    },
    {
        "OBJECT_NAME": "SL-14 R/B",
        "OBJECT_ID": "1989-080C",
        "EPOCH": "2026-04-18T19:16:37.394112",
        "MEAN_MOTION": 12.50525754,
        "ECCENTRICITY": 0.1230971,
        "INCLINATION": 82.5921,
        "RA_OF_ASC_NODE": 147.4449,
        "ARG_OF_PERICENTER": 93.1091,
        "MEAN_ANOMALY": 281.1214,
        "EPHEMERIS_TYPE": 0,
        "CLASSIFICATION_TYPE": "U",
        "NORAD_CAT_ID": 20262,
        "ELEMENT_SET_NO": 999,
        "REV_AT_EPOCH": 66516,
        "BSTAR": 6.2522e-05,
        "MEAN_MOTION_DOT": 2.41e-06,
        "MEAN_MOTION_DDOT": 0
    },
    {
        "OBJECT_NAME": "DELTA 1 R/B",
        "OBJECT_ID": "1989-089B",
        "EPOCH": "2026-04-18T19:59:38.848128",
        "MEAN_MOTION": 14.50693678,
        "ECCENTRICITY": 0.006895,
        "INCLINATION": 97.0671,
        "RA_OF_ASC_NODE": 309.8768,
        "ARG_OF_PERICENTER": 356.9949,
        "MEAN_ANOMALY": 3.0825,
        "EPHEMERIS_TYPE": 0,
        "CLASSIFICATION_TYPE": "U",
        "NORAD_CAT_ID": 20323,
        "ELEMENT_SET_NO": 999,
        "REV_AT_EPOCH": 90155,
        "BSTAR": 4.846e-05,
        "MEAN_MOTION_DOT": 1.61e-06,
        "MEAN_MOTION_DDOT": 0
    },
    {
        "OBJECT_NAME": "ARIANE 40 R/B",
        "OBJECT_ID": "1990-005H",
        "EPOCH": "2026-04-18T03:28:59.115360",
        "MEAN_MOTION": 14.39895453,
        "ECCENTRICITY": 0.00113885,
        "INCLINATION": 98.3009,
        "RA_OF_ASC_NODE": 167.6152,
        "ARG_OF_PERICENTER": 87.6876,
        "MEAN_ANOMALY": 272.5617,
        "EPHEMERIS_TYPE": 0,
        "CLASSIFICATION_TYPE": "U",
        "NORAD_CAT_ID": 20443,
        "ELEMENT_SET_NO": 999,
        "REV_AT_EPOCH": 89848,
        "BSTAR": 5.8478599e-05,
        "MEAN_MOTION_DOT": 1.42e-06,
        "MEAN_MOTION_DDOT": 0
    },
    {
        "OBJECT_NAME": "DELTA 2 R/B(1)",
        "OBJECT_ID": "1990-008B",
        "EPOCH": "2026-04-18T17:26:01.074048",
        "MEAN_MOTION": 15.61185734,
        "ECCENTRICITY": 0.0076017,
        "INCLINATION": 35.6031,
        "RA_OF_ASC_NODE": 271.0267,
        "ARG_OF_PERICENTER": 275.0507,
        "MEAN_ANOMALY": 84.1557,
        "EPHEMERIS_TYPE": 0,
        "CLASSIFICATION_TYPE": "U",
        "NORAD_CAT_ID": 20453,
        "ELEMENT_SET_NO": 999,
        "REV_AT_EPOCH": 93238,
        "BSTAR": 0.00060813,
        "MEAN_MOTION_DOT": 0.00061912,
        "MEAN_MOTION_DDOT": 0
    },
    {
        "OBJECT_NAME": "COSMOS 2058",
        "OBJECT_ID": "1990-010A",
        "EPOCH": "2026-04-18T10:26:15.183744",
        "MEAN_MOTION": 15.11665263,
        "ECCENTRICITY": 0.0009111,
        "INCLINATION": 82.4714,
        "RA_OF_ASC_NODE": 8.2701,
        "ARG_OF_PERICENTER": 188.3571,
        "MEAN_ANOMALY": 171.7509,
        "EPHEMERIS_TYPE": 0,
        "CLASSIFICATION_TYPE": "U",
        "NORAD_CAT_ID": 20465,
        "ELEMENT_SET_NO": 999,
        "REV_AT_EPOCH": 94824,
        "BSTAR": 0.00010059069,
        "MEAN_MOTION_DOT": 1.741e-05,
        "MEAN_MOTION_DDOT": 0
    },
    {
        "OBJECT_NAME": "SL-14 R/B",
        "OBJECT_ID": "1990-010B",
        "EPOCH": "2026-04-18T14:45:21.357792",
        "MEAN_MOTION": 14.83607086,
        "ECCENTRICITY": 0.0020235,
        "INCLINATION": 82.5031,
        "RA_OF_ASC_NODE": 229.8816,
        "ARG_OF_PERICENTER": 164.2483,
        "MEAN_ANOMALY": 195.9366,
        "EPHEMERIS_TYPE": 0,
        "CLASSIFICATION_TYPE": "U",
        "NORAD_CAT_ID": 20466,
        "ELEMENT_SET_NO": 999,
        "REV_AT_EPOCH": 93440,
        "BSTAR": 3.7126e-05,
        "MEAN_MOTION_DOT": 3.31e-06,
        "MEAN_MOTION_DDOT": 0
    },
    {
        "OBJECT_NAME": "SL-14 R/B",
        "OBJECT_ID": "1990-018B",
        "EPOCH": "2026-04-18T14:28:53.143104",
        "MEAN_MOTION": 14.82181003,
        "ECCENTRICITY": 0.0015246,
        "INCLINATION": 82.524,
        "RA_OF_ASC_NODE": 185.7954,
        "ARG_OF_PERICENTER": 324.8583,
        "MEAN_ANOMALY": 35.1625,
        "EPHEMERIS_TYPE": 0,
        "CLASSIFICATION_TYPE": "U",
        "NORAD_CAT_ID": 20511,
        "ELEMENT_SET_NO": 999,
        "REV_AT_EPOCH": 92849,
        "BSTAR": 2.9309e-05,
        "MEAN_MOTION_DOT": 2.57e-06,
        "MEAN_MOTION_DDOT": 0
    },
    {
        "OBJECT_NAME": "HST",
        "OBJECT_ID": "1990-037B",
        "EPOCH": "2026-04-18T17:41:02.888736",
        "MEAN_MOTION": 15.30076837,
        "ECCENTRICITY": 0.0001998,
        "INCLINATION": 28.4728,
        "RA_OF_ASC_NODE": 126.6772,
        "ARG_OF_PERICENTER": 197.9473,
        "MEAN_ANOMALY": 162.1052,
        "EPHEMERIS_TYPE": 0,
        "CLASSIFICATION_TYPE": "U",
        "NORAD_CAT_ID": 20580,
        "ELEMENT_SET_NO": 999,
        "REV_AT_EPOCH": 77945,
        "BSTAR": 0.00015074,
        "MEAN_MOTION_DOT": 4.744e-05,
        "MEAN_MOTION_DDOT": 0
    },
    {
        "OBJECT_NAME": "SL-16 R/B",
        "OBJECT_ID": "1990-046B",
        "EPOCH": "2026-04-18T18:42:18.495072",
        "MEAN_MOTION": 14.15015596,
        "ECCENTRICITY": 0.0016354,
        "INCLINATION": 70.9993,
        "RA_OF_ASC_NODE": 213.7141,
        "ARG_OF_PERICENTER": 247.0447,
        "MEAN_ANOMALY": 112.895,
        "EPHEMERIS_TYPE": 0,
        "CLASSIFICATION_TYPE": "U",
        "NORAD_CAT_ID": 20625,
        "ELEMENT_SET_NO": 999,
        "REV_AT_EPOCH": 85406,
        "BSTAR": -8.055e-05,
        "MEAN_MOTION_DOT": -2.04e-06,
        "MEAN_MOTION_DDOT": 0
    }
]