COSMOS 1975             
1 19573U 88093A   26108.33564851  .00003791  00000+0  13494-3 0  9998
2 19573  82.5179  77.8596 0012570  39.6528 320.5629 15.28569537 25464
SL-14 R/B               
1 19574U 88093B   26108.21590412  .00000262  00000+0  27305-4 0  9995
2 19574  82.5341   4.9492 0019079 267.3595 253.5358 14.85698791  6883
SL-16 R/B               
1 19650U 88102B   26108.60164113 -.00000236  00000+0 -94910-4 0  9998
2 19650  70.9994  67.5140 0016160 304.5453  55.4144 14.16159249932540
INTERCOSMOS 24          
1 20261U 89080A   26108.83787281  .00000209  00000+0  57542-4 0  9994
2 20261  82.6030  78.2545 1187362 199.5756 155.5833 12.59598459671857
SL-14 R/B               
1 20262U 89080C   26108.80321058  .00000241  00000+0  62522-4 0  9998
2 20262  82.5921 147.4449 1230971  93.1091 281.1214 12.50525754665169
DELTA 1 R/B             
1 20323U 89089B   26108.83308852  .00000161  00000+0  48460-4 0  9991
2 20323  97.0671 309.8768 0068950 356.9949   3.0825 14.50693678901553
ARIANE 40 R/B           
1 20443U 90005H   26108.14512865  .00000142  00000+0  58479-4 0  9999
2 20443  98.3009 167.6152 0011388  87.6876 272.5617 14.39895453898483
DELTA 2 R/B(1)          
1 20453U 90008B   26108.72640132  .00061912  00000+0  60813-3 0  9992
2 20453  35.6031 271.0267 0076017 275.0507  84.1557 15.61185734932382
COSMOS 2058             
1 20465U 90010A   26108.43489796  .00001741  00000+0  10059-3 0  9994
2 20465  82.4714   8.2701 0009111 188.3571 171.7509 15.11665263948241
SL-14 R/B               
1 20466U 90010B   26108.61483053  .00000331  00000+0  37126-4 0  9994
2 20466  82.5031 229.8816 0020235 164.2483 195.9366 14.83607086934407
SL-14 R/B               
1 20511U 90018B   26108.60339286  .00000257  00000+0  29309-4 0  9991
2 20511  82.5240 185.7954 0015246 324.8583  35.1625 14.82181003928494
HST                     
1 20580U 90037B   26108.73683899  .00004744  00000+0  15074-3 0  9992
2 20580  28.4728 126.6772 0001998 197.9473 162.1052 15.30076837779455
SL-16 R/B               
1 20625U 90046B   26108.77938073 -.00000204  00000+0 -80550-4 0  9994
2 20625  70.9993 213.7141 0016354 247.0447 112.8950 14.15015596854066
